[{"OBJECT_NAME":"STARLINK-32750","OBJECT_ID":"2025-006U","EPOCH":"2026-03-09T00:18:25.672032","MEAN_MOTION":15.27606075,"ECCENTRICITY":0.00012043,"INCLINATION":43.0026,"RA_OF_ASC_NODE":296.0022,"ARG_OF_PERICENTER":282.8978,"MEAN_ANOMALY":77.1739,"EPHEMERIS_TYPE":0,"CLASSIFICATION_TYPE":"U","NORAD_CAT_ID":62572,"ELEMENT_SET_NO":999,"REV_AT_EPOCH":6476,"BSTAR":0.0010087082,"MEAN_MOTION_DOT":0.00027621,"MEAN_MOTION_DDOT":0},{"OBJECT_NAME":"COSMOS 2251 DEB","OBJECT_ID":"1993-036RB","EPOCH":"2026-03-09T01:08:04.800192","MEAN_MOTION":15.30699894,"ECCENTRICITY":0.00252965,"INCLINATION":73.7308,"RA_OF_ASC_NODE":76.2904,"ARG_OF_PERICENTER":263.9966,"MEAN_ANOMALY":95.8352,"EPHEMERIS_TYPE":0,"CLASSIFICATION_TYPE":"U","NORAD_CAT_ID":34410,"ELEMENT_SET_NO":999,"REV_AT_EPOCH":91089,"BSTAR":0.003018315,"MEAN_MOTION_DOT":0.00091531,"MEAN_MOTION_DDOT":0}]
